start=new Date('2022-05-21T00:00:00.000Z').valueOf();
sats=[{"MEAN_MOTION_DOT":"-0.00876467","PERIAPSIS":"334.711","MEAN_ANOMALY":"41.3997","BSTAR":"-0.00557190000000","MEAN_MOTION":"15.78104772","EPOCH":"2022-05-20T22:00:00.999936","REF_FRAME":"TEME","INCLINATION":"53.2171","FILE":"3455605","CENTER_NAME":"EARTH","ARG_OF_PERICENTER":"29.7937","ELEMENT_SET_NO":"999","DECAY_DATE":null,"SITE":"AFWTR","PERIOD":"91.249","OBJECT_NAME":"STARLINK-3869","TLE_LINE1":"1 52547U 22051Q   22140.91667824 -.00876467  00000-0 -55719-2 0  9994","TLE_LINE2":"2 52547  53.2171 258.5338 0001641  29.7937  41.3997 15.78104772  1643","SEMIMAJOR_AXIS":"6713.948","REV_AT_EPOCH":"164","GP_ID":"204052051","OBJECT_ID":"2022-051Q","NORAD_CAT_ID":"52547","OBJECT_TYPE":"PAYLOAD","COUNTRY_CODE":"US","APOAPSIS":"336.914","MEAN_ELEMENT_THEORY":"SGP4","RA_OF_ASC_NODE":"258.5338","LAUNCH_DATE":"2022-05-13","CLASSIFICATION_TYPE":"U","EPHEMERIS_TYPE":"0","RCS_SIZE":"LARGE","MEAN_MOTION_DDOT":"0.0000000000000","TIME_SYSTEM":"UTC","ECCENTRICITY":"0.00016410"},{"DECAY_DATE":null,"SITE":"AFWTR","PERIOD":"91.239","REF_FRAME":"TEME","INCLINATION":"53.2171","FILE":"3455605","CENTER_NAME":"EARTH","ARG_OF_PERICENTER":"22.7084","ELEMENT_SET_NO":"999","MEAN_MOTION":"15.78265486","EPOCH":"2022-05-20T22:00:00.999936","MEAN_MOTION_DOT":"-0.00876391","PERIAPSIS":"334.058","MEAN_ANOMALY":"51.7268","BSTAR":"-0.00553020000000","TIME_SYSTEM":"UTC","MEAN_MOTION_DDOT":"0.0000000000000","ECCENTRICITY":"0.00019350","RA_OF_ASC_NODE":"258.5272","LAUNCH_DATE":"2022-05-13","CLASSIFICATION_TYPE":"U","EPHEMERIS_TYPE":"0","RCS_SIZE":"LARGE","SEMIMAJOR_AXIS":"6713.492","REV_AT_EPOCH":"164","NORAD_CAT_ID":"52548","GP_ID":"204052053","OBJECT_ID":"2022-051R","COUNTRY_CODE":"US","OBJECT_TYPE":"PAYLOAD","APOAPSIS":"336.656","MEAN_ELEMENT_THEORY":"SGP4","OBJECT_NAME":"STARLINK-3931","TLE_LINE1":"1 52548U 22051R   22140.91667824 -.00876391  00000-0 -55302-2 0  9999","TLE_LINE2":"2 52548  53.2171 258.5272 0001935  22.7084  51.7268 15.78265486  1649"},{"COUNTRY_CODE":"US","OBJECT_TYPE":"PAYLOAD","OBJECT_ID":"2022-051S","GP_ID":"204051899","NORAD_CAT_ID":"52549","SEMIMAJOR_AXIS":"6713.836","REV_AT_EPOCH":"164","MEAN_ELEMENT_THEORY":"SGP4","APOAPSIS":"336.912","OBJECT_NAME":"STARLINK-3935","TLE_LINE2":"2 52549  53.2171 258.5321 0001804  25.5649  46.4510 15.78144105  1643","TLE_LINE1":"1 52549U 22051S   22140.91667824 -.00876370  00000-0 -55609-2 0  9997","MEAN_MOTION_DDOT":"0.0000000000000","TIME_SYSTEM":"UTC","ECCENTRICITY":"0.00018040","EPHEMERIS_TYPE":"0","LAUNCH_DATE":"2022-05-13","CLASSIFICATION_TYPE":"U","RA_OF_ASC_NODE":"258.5321","RCS_SIZE":"LARGE","MEAN_MOTION":"15.78144105","EPOCH":"2022-05-20T22:00:00.999936","MEAN_ANOMALY":"46.4510","PERIAPSIS":"334.490","MEAN_MOTION_DOT":"-0.00876370","BSTAR":"-0.00556090000000","PERIOD":"91.246","SITE":"AFWTR","DECAY_DATE":null,"ARG_OF_PERICENTER":"25.5649","CENTER_NAME":"EARTH","FILE":"3455605","INCLINATION":"53.2171","REF_FRAME":"TEME","ELEMENT_SET_NO":"999"},{"TLE_LINE1":"1 52550U 22051T   22140.91667824 -.00876596  00000-0 -55428-2 0  9998","TLE_LINE2":"2 52550  53.2171 258.5289 0001534  33.6411  39.9930 15.78224960  1646","OBJECT_NAME":"STARLINK-3965","APOAPSIS":"336.502","MEAN_ELEMENT_THEORY":"SGP4","GP_ID":"204052047","NORAD_CAT_ID":"52550","OBJECT_ID":"2022-051T","OBJECT_TYPE":"PAYLOAD","COUNTRY_CODE":"US","REV_AT_EPOCH":"164","SEMIMAJOR_AXIS":"6713.607","RCS_SIZE":"LARGE","EPHEMERIS_TYPE":"0","RA_OF_ASC_NODE":"258.5289","LAUNCH_DATE":"2022-05-13","CLASSIFICATION_TYPE":"U","ECCENTRICITY":"0.00015340","TIME_SYSTEM":"UTC","MEAN_MOTION_DDOT":"0.0000000000000","BSTAR":"-0.00554280000000","MEAN_ANOMALY":"39.9930","MEAN_MOTION_DOT":"-0.00876596","PERIAPSIS":"334.442","EPOCH":"2022-05-20T22:00:00.999936","MEAN_MOTION":"15.78224960","ELEMENT_SET_NO":"999","ARG_OF_PERICENTER":"33.6411","CENTER_NAME":"EARTH","INCLINATION":"53.2171","REF_FRAME":"TEME","FILE":"3455605","SITE":"AFWTR","PERIOD":"91.242","DECAY_DATE":null},{"ELEMENT_SET_NO":"999","FILE":"3455605","INCLINATION":"53.2171","REF_FRAME":"TEME","CENTER_NAME":"EARTH","ARG_OF_PERICENTER":"31.2930","DECAY_DATE":null,"PERIOD":"91.244","SITE":"AFWTR","BSTAR":"-0.00555200000000","PERIAPSIS":"334.504","MEAN_MOTION_DOT":"-0.00876540","MEAN_ANOMALY":"41.5189","EPOCH":"2022-05-20T22:00:00.999936","MEAN_MOTION":"15.78186112","RCS_SIZE":"MEDIUM","LAUNCH_DATE":"2022-05-13","CLASSIFICATION_TYPE":"U","RA_OF_ASC_NODE":"258.5305","EPHEMERIS_TYPE":"0","ECCENTRICITY":"0.00016060","MEAN_MOTION_DDOT":"0.0000000000000","TIME_SYSTEM":"UTC","TLE_LINE2":"2 52551  53.2171 258.5305 0001606  31.2930  41.5189 15.78186112  1647","TLE_LINE1":"1 52551U 22051U   22140.91667824 -.00876540  00000-0 -55520-2 0  9991","OBJECT_NAME":"STARLINK-3969","MEAN_ELEMENT_THEORY":"SGP4","APOAPSIS":"336.660","REV_AT_EPOCH":"164","SEMIMAJOR_AXIS":"6713.717","COUNTRY_CODE":"US","OBJECT_TYPE":"PAYLOAD","GP_ID":"204052050","OBJECT_ID":"2022-051U","NORAD_CAT_ID":"52551"},{"OBJECT_NAME":"STARLINK-3966","TLE_LINE2":"2 52552  53.2171 258.5265 0001662  28.9563  45.8881 15.78284928  1640","TLE_LINE1":"1 52552U 22051V   22140.91667824 -.00876547  00000-0 -55271-2 0  9992","SEMIMAJOR_AXIS":"6713.437","REV_AT_EPOCH":"164","COUNTRY_CODE":"US","OBJECT_TYPE":"PAYLOAD","NORAD_CAT_ID":"52552","GP_ID":"204051902","OBJECT_ID":"2022-051V","MEAN_ELEMENT_THEORY":"SGP4","APOAPSIS":"336.418","CLASSIFICATION_TYPE":"U","LAUNCH_DATE":"2022-05-13","RA_OF_ASC_NODE":"258.5265","EPHEMERIS_TYPE":"0","RCS_SIZE":"LARGE","TIME_SYSTEM":"UTC","MEAN_MOTION_DDOT":"0.0000000000000","ECCENTRICITY":"0.00016620","PERIAPSIS":"334.186","MEAN_MOTION_DOT":"-0.00876547","MEAN_ANOMALY":"45.8881","BSTAR":"-0.00552710000000","MEAN_MOTION":"15.78284928","EPOCH":"2022-05-20T22:00:00.999936","FILE":"3455605","REF_FRAME":"TEME","INCLINATION":"53.2171","CENTER_NAME":"EARTH","ARG_OF_PERICENTER":"28.9563","ELEMENT_SET_NO":"999","DECAY_DATE":null,"PERIOD":"91.238","SITE":"AFWTR"},{"EPHEMERIS_TYPE":"0","LAUNCH_DATE":"2022-05-13","CLASSIFICATION_TYPE":"U","RA_OF_ASC_NODE":"258.5297","RCS_SIZE":"LARGE","TIME_SYSTEM":"UTC","MEAN_MOTION_DDOT":"0.0000000000000","ECCENTRICITY":"0.00015840","OBJECT_NAME":"STARLINK-3858","TLE_LINE2":"2 52553  53.2171 258.5297 0001584  31.1218  42.1086 15.78204760  1645","TLE_LINE1":"1 52553U 22051W   22140.91667824 -.00876516  00000-0 -55472-2 0  9992","OBJECT_TYPE":"PAYLOAD","COUNTRY_CODE":"US","NORAD_CAT_ID":"52553","GP_ID":"204051906","OBJECT_ID":"2022-051W","SEMIMAJOR_AXIS":"6713.664","REV_AT_EPOCH":"164","MEAN_ELEMENT_THEORY":"SGP4","APOAPSIS":"336.593","CENTER_NAME":"EARTH","ARG_OF_PERICENTER":"31.1218","FILE":"3455605","REF_FRAME":"TEME","INCLINATION":"53.2171","ELEMENT_SET_NO":"999","PERIOD":"91.243","SITE":"AFWTR","DECAY_DATE":null,"MEAN_ANOMALY":"42.1086","PERIAPSIS":"334.466","MEAN_MOTION_DOT":"-0.00876516","BSTAR":"-0.00554720000000","MEAN_MOTION":"15.78204760","EPOCH":"2022-05-20T22:00:00.999936"},{"RCS_SIZE":"MEDIUM","RA_OF_ASC_NODE":"258.5249","CLASSIFICATION_TYPE":"U","LAUNCH_DATE":"2022-05-13","EPHEMERIS_TYPE":"0","ECCENTRICITY":"0.00015300","MEAN_MOTION_DDOT":"0.0000000000000","TIME_SYSTEM":"UTC","TLE_LINE1":"1 52554U 22051X   22140.91667824 -.00876632  00000-0 -55172-2 0  9999","TLE_LINE2":"2 52554  53.2171 258.5249 0001530  33.2269  42.3907 15.78328060  1647","OBJECT_NAME":"STARLINK-3770","APOAPSIS":"336.207","MEAN_ELEMENT_THEORY":"SGP4","SEMIMAJOR_AXIS":"6713.314","REV_AT_EPOCH":"164","OBJECT_ID":"2022-051X","GP_ID":"204052054","NORAD_CAT_ID":"52554","OBJECT_TYPE":"PAYLOAD","COUNTRY_CODE":"US","ELEMENT_SET_NO":"999","REF_FRAME":"TEME","INCLINATION":"53.2171","FILE":"3455605","CENTER_NAME":"EARTH","ARG_OF_PERICENTER":"33.2269","DECAY_DATE":null,"SITE":"AFWTR","PERIOD":"91.236","BSTAR":"-0.00551720000000","MEAN_MOTION_DOT":"-0.00876632","PERIAPSIS":"334.152","MEAN_ANOMALY":"42.3907","EPOCH":"2022-05-20T22:00:00.999936","MEAN_MOTION":"15.78328060"},{"BSTAR":"-0.00553530000000","MEAN_ANOMALY":"49.9008","MEAN_MOTION_DOT":"-0.00876400","PERIAPSIS":"334.155","EPOCH":"2022-05-20T22:00:00.999936","MEAN_MOTION":"15.78246053","ELEMENT_SET_NO":"999","CENTER_NAME":"EARTH","ARG_OF_PERICENTER":"24.1255","REF_FRAME":"TEME","INCLINATION":"53.2171","FILE":"3455638","SITE":"AFWTR","PERIOD":"91.241","DECAY_DATE":null,"TLE_LINE1":"1 52555U 22051Y   22140.91667824 -.00876400  00000-0 -55353-2 0  9994","TLE_LINE2":"2 52555  53.2171 258.5280 0001872  24.1255  49.9008 15.78246053  1642","OBJECT_NAME":"STARLINK-3949","APOAPSIS":"336.669","MEAN_ELEMENT_THEORY":"SGP4","GP_ID":"204052927","OBJECT_ID":"2022-051Y","NORAD_CAT_ID":"52555","OBJECT_TYPE":"PAYLOAD","COUNTRY_CODE":"US","SEMIMAJOR_AXIS":"6713.547","REV_AT_EPOCH":"164","RCS_SIZE":"LARGE","EPHEMERIS_TYPE":"0","RA_OF_ASC_NODE":"258.5280","LAUNCH_DATE":"2022-05-13","CLASSIFICATION_TYPE":"U","ECCENTRICITY":"0.00018720","TIME_SYSTEM":"UTC","MEAN_MOTION_DDOT":"0.0000000000000"},{"CLASSIFICATION_TYPE":"U","LAUNCH_DATE":"2022-05-13","RA_OF_ASC_NODE":"258.5232","EPHEMERIS_TYPE":"0","RCS_SIZE":"LARGE","TIME_SYSTEM":"UTC","MEAN_MOTION_DDOT":"0.0000000000000","ECCENTRICITY":"0.00015490","OBJECT_NAME":"STARLINK-3763","TLE_LINE2":"2 52556  53.2171 258.5232 0001549  33.2098  43.2203 15.78366805  1649","TLE_LINE1":"1 52556U 22051Z   22140.91667824 -.00876666  00000-0 -55077-2 0  9992","SEMIMAJOR_AXIS":"6713.205","REV_AT_EPOCH":"164","OBJECT_TYPE":"PAYLOAD","COUNTRY_CODE":"US","NORAD_CAT_ID":"52556","GP_ID":"204052484","OBJECT_ID":"2022-051Z","MEAN_ELEMENT_THEORY":"SGP4","APOAPSIS":"336.109","FILE":"3455638","INCLINATION":"53.2171","REF_FRAME":"TEME","CENTER_NAME":"EARTH","ARG_OF_PERICENTER":"33.2098","ELEMENT_SET_NO":"999","DECAY_DATE":null,"PERIOD":"91.234","SITE":"AFWTR","PERIAPSIS":"334.030","MEAN_MOTION_DOT":"-0.00876666","MEAN_ANOMALY":"43.2203","BSTAR":"-0.00550770000000","MEAN_MOTION":"15.78366805","EPOCH":"2022-05-20T22:00:00.999936"}];
